{"epoch":1784848540,"count":18314,"objects":[{"id":"39634","name":"SENTINEL 1A","type":"PAYLOAD","l1":"1 39634U 14016A   26204.71044689  .00000035  00000-0  17216-4 0  9999","l2":"2 39634  98.1701 211.7058 0001398  88.9672 271.1688 14.59174326655346"},{"id":"41456","name":"SENTINEL 1B","type":"PAYLOAD","l1":"1 41456U 16025A   26204.90054897  .00001584  00000-0  13477-3 0  9993","l2":"2 41456  98.0887 267.0695 0014405   9.5983 350.5511 14.99302480549283"},{"id":"62261","name":"SENTINEL 1C","type":"PAYLOAD","l1":"1 62261U 24235A   26204.81831199  .00000107  00000-0  32313-4 0  9991","l2":"2 62261  98.1830 211.6072 0001387  88.1017 272.0341 14.59197832 86755"},{"id":"66315","name":"SENTINEL-1D","type":"PAYLOAD","l1":"1 66315U 25251A   26204.44132404  .00000056  00000-0  21686-4 0  9990","l2":"2 66315  98.1829 211.2906 0001391  93.9921 266.1438 14.59198373 38010"}]}